Sat1
1 70001F 21700A   21177.00000000  .00000000  00000-0  00000-0 0  100
2 70001  15.0000 100.0000 0000000  90.0000   5.0000 15.00000000  100
Sat2
1 70002F 21700A   21177.00000000  .00000000  00000-0  00000-0 0  100
2 70002  15.0000 100.0000 0000000  90.0000  10.0000 15.00000000  100
Sat3
1 70003F 21700A   21177.00000000  .00000000  00000-0  00000-0 0  100
2 70003  15.0000 100.0000 0000000  90.0000  15.0000 15.00000000  100
Sat4
1 70004F 21700A   21177.00000000  .00000000  00000-0  00000-0 0  100
2 70004  15.0000 100.0000 0000000  90.0000  20.0000 15.00000000  100
Sat5
1 70005F 21700A   21177.00000000  .00000000  00000-0  00000-0 0  100
2 70005  15.0000 100.0000 0000000  90.0000  25.0000 15.00000000  100
Sat6
1 70006F 21700A   21177.00000000  .00000000  00000-0  00000-0 0  100
2 70006  15.0000 100.0000 0000000  90.0000  30.0000 15.00000000  100
Sat7
1 70007F 21700A   21177.00000000  .00000000  00000-0  00000-0 0  100
2 70007  15.0000 100.0000 0000000  90.0000  35.0000 15.00000000  100
Sat8
1 70008F 21700A   21177.00000000  .00000000  00000-0  00000-0 0  100
2 70008  15.0000 100.0000 0000000  90.0000  40.0000 15.00000000  100
Sat9
1 70009F 21700A   21177.00000000  .00000000  00000-0  00000-0 0  100
2 70009  15.0000 100.0000 0000000  90.0000  45.0000 15.00000000  100
Sat10
1 70010F 21700A   21177.00000000  .00000000  00000-0  00000-0 0  100
2 70010  15.0000 100.0000 0000000  90.0000  50.0000 15.00000000  100
Sat11
1 70011F 21700A   21177.00000000  .00000000  00000-0  00000-0 0  100
2 70011  15.0000 100.0000 0000000  90.0000  55.0000 15.00000000  100
Sat12
1 70012F 21700A   21177.00000000  .00000000  00000-0  00000-0 0  100
2 70012  15.0000 100.0000 0000000  90.0000  60.0000 15.00000000  100
Sat13
1 70013F 21700A   21177.00000000  .00000000  00000-0  00000-0 0  100
2 70013  15.0000 100.0000 0000000  90.0000  65.0000 15.00000000  100
Sat14
1 70014F 21700A   21177.00000000  .00000000  00000-0  00000-0 0  100
2 70014  15.0000 100.0000 0000000  90.0000  70.0000 15.00000000  100
Sat15
1 70015F 21700A   21177.00000000  .00000000  00000-0  00000-0 0  100
2 70015  15.0000 100.0000 0000000  90.0000  75.0000 15.00000000  100
